STARLINK-37976          
1 69697U 26145W   26198.56605942  .00179256  00000+0  11741-2 0  9993
2 69697  97.2838  45.5763 0001428  70.0260 290.1159 15.75260045  3551
STARLINK-37912          
1 69698U 26145X   26198.05677373  .00219535  00000+0  14293-2 0  9995
2 69698  97.2835  45.0455 0001401  60.5202 299.6203 15.75285434  3477
STARLINK-37974          
1 69699U 26145Y   26198.05607422  .00163366  00000+0  10723-2 0  9998
2 69699  97.2835  45.0460 0001635  78.3038 281.8410 15.75254304  3472
STARLINK-37955          
1 69700U 26145Z   26198.05360393  .00152265  00000+0  10009-2 0  9997
2 69700  97.2833  45.0506 0001393  65.2434 294.8976 15.75253311  3478
STARLINK-38055          
1 69704U 26147A   26198.57467808  .00186879  00000+0  95206-3 0  9990
2 69704  97.2823 235.0989 0001135  86.7339 273.4059 15.80898018  4238
STARLINK-37898          
1 69705U 26147B   26198.57385308  .00316619  00000+0  15837-2 0  9993
2 69705  97.2830 235.1000 0000860  45.6556 314.4783 15.80963522  4234
STARLINK-37970          
1 69706U 26147C   26198.57310345  .00296503  00000+0  14878-2 0  9996
2 69706  97.2812 235.1018 0001312  55.1550 304.9841 15.80946447  4233
STARLINK-37975          
1 69707U 26147D   26198.57235027  .00280358  00000+0  14099-2 0  9996
2 69707  97.2824 235.1024 0000950  59.1625 300.9737 15.80939588  4236
STARLINK-37972          
1 69708U 26147E   26198.57160122  .00226940  00000+0  11513-2 0  9995
2 69708  97.2808 235.1043 0001382  81.5756 278.5669 15.80885071  4235
STARLINK-37963          
1 69709U 26147F   26198.57084860  .00195259  00000+0  99377-3 0  9993
2 69709  97.2818 235.1044 0001301  72.3599 287.7811 15.80897642  4230
STARLINK-37969          
1 69710U 26147G   26198.57009528  .00227299  00000+0  11512-2 0  9997
2 69710  97.2824 235.1055 0000921  68.1295 292.0071 15.80921867  4238
STARLINK-37956          
1 69711U 26147H   26198.56934572  .00192542  00000+0  98038-3 0  9994
2 69711  97.2827 235.1076 0001295  60.3055 299.8342 15.80895016  4230
STARLINK-38043          
1 69712U 26147J   26198.56858764  .00183233  00000+0  93386-3 0  9991
2 69712  97.2825 235.1081 0000226 261.4032  98.7211 15.80898257  4238
STARLINK-38020          
1 69713U 26147K   26198.56783676  .00165154  00000+0  84399-3 0  9997
2 69713  97.2821 235.1103 0000544 195.1337 164.9915 15.80887328  4238
STARLINK-38059          
1 69714U 26147L   26198.56708535  .00188806  00000+0  96181-3 0  9990
2 69714  97.2831 235.1117 0000317 264.6269  95.4963 15.80894200  4237
STARLINK-38061          
1 69715U 26147M   26198.56633674  .00175168  00000+0  89364-3 0  9994
2 69715  97.2821 235.1118 0000684  52.7499 307.3831 15.80898339  4232
STARLINK-38060          
1 69716U 26147N   26198.56558787  .00181350  00000+0  92466-3 0  9993
2 69716  97.2819 235.1125 0001040  79.1308 281.0077 15.80894454  4231
STARLINK-38040          
1 69717U 26147P   26198.56483615  .00171859  00000+0  87741-3 0  9994
2 69717  97.2821 235.1138 0001224  79.6660 280.4746 15.80890613  4238
STARLINK-37989          
1 69718U 26147Q   26198.56408490  .00209564  00000+0  10669-2 0  9992
2 69718  97.2807 235.1139 0001535  81.9005 278.2437 15.80852738  4236
STARLINK-38039          
1 69719U 26147R   26198.56333029  .00202402  00000+0  10285-2 0  9996
2 69719  97.2817 235.1145 0000718  52.5970 307.5364 15.80912897  4230
STARLINK-38003          
1 69720U 26147S   26198.56258220  .00197341  00000+0  10040-2 0  9991
2 69720  97.2827 235.1156 0001174  92.3213 267.8189 15.80899551  4238
STARLINK-38014          
1 69721U 26147T   26198.56182810  .00194507  00000+0  99049-3 0  9991
2 69721  97.2822 235.1166 0001029  63.1266 297.0108 15.80887599  4233
STARLINK-37915          
1 69722U 26147U   26198.56107742  .00200932  00000+0  10214-2 0  9999
2 69722  97.2818 235.1172 0000842  66.9864 293.1493 15.80908953  4235
STARLINK-38007          
1 69723U 26147V   26198.37358382  .00761876  00000+0  36476-2 0  9994
2 69723  97.2842 234.9147 0002152 343.2087  16.9110 15.80781191  4203
STARLINK-38008          
1 69724U 26147W   26198.36967176  .00196064  00000+0  99966-3 0  9996
2 69724  97.2819 234.9186 0001196  92.5327 267.6078 15.80856306  4208
STARLINK-38021          
1 69725U 26147X   26198.55882471  .00205032  00000+0  10421-2 0  9996
2 69725  97.2816 235.1212 0001159  72.4509 287.6886 15.80901884  4231
STARLINK-38015          
1 69726U 26147Y   26198.05172056  .00270378  00000+0  13765-2 0  9992
2 69726  97.2828 234.5863 0003109 175.2803 184.8496 15.80693791  4157
STARLINK-38010          
1 69727U 26147Z   26198.52579015  .00155021  00000+0  10192-2 0  9999
2 69727  97.2838 235.0124 0000594  89.8639 270.2694 15.75240203  4225
STARLINK-38033          
1 69739U 26150A   26198.49001286  .00225059  00000+0  11411-2 0  9996
2 69739  97.2846  36.9841 0001271 101.6458 258.4953 15.80903739  3687
STARLINK-38076          
1 69740U 26150B   26198.51689711  .00166410  00000+0  10925-2 0  9990
2 69740  97.2837  36.9457 0001137  98.9376 261.2018 15.75242485  3682
